[{"OBJECT_NAME":"STARLINK-5284","OBJECT_ID":"2023-010AE","EPOCH":"2026-03-09T23:25:07.560480","MEAN_MOTION":14.98335798,"ECCENTRICITY":0.00027524,"INCLINATION":70.0016,"RA_OF_ASC_NODE":23.671,"ARG_OF_PERICENTER":270.62,"MEAN_ANOMALY":89.4644,"EPHEMERIS_TYPE":0,"CLASSIFICATION_TYPE":"U","NORAD_CAT_ID":55297,"ELEMENT_SET_NO":999,"REV_AT_EPOCH":17331,"BSTAR":-0.00011856401,"MEAN_MOTION_DOT":-1.508e-5,"MEAN_MOTION_DDOT":0},{"OBJECT_NAME":"CZ-2D R\/B","OBJECT_ID":"2018-048C","EPOCH":"2026-03-09T15:04:20.679168","MEAN_MOTION":14.94740995,"ECCENTRICITY":0.001273,"INCLINATION":97.5865,"RA_OF_ASC_NODE":101.6245,"ARG_OF_PERICENTER":129.2773,"MEAN_ANOMALY":230.9579,"EPHEMERIS_TYPE":0,"CLASSIFICATION_TYPE":"U","NORAD_CAT_ID":43486,"ELEMENT_SET_NO":999,"REV_AT_EPOCH":42028,"BSTAR":0.00054527,"MEAN_MOTION_DOT":5.879e-5,"MEAN_MOTION_DDOT":0}]
